
[
    { "name": "Afghanistan", "iso": "AF", "flag": "ğŸ‡¦ğŸ‡«", "dialCode": "+93" },
    { "name": "Aland Islands", "iso": "AX", "flag": "ğŸ‡¦ğŸ‡½", "dialCode": "+358-18" },
    { "name": "Albania", "iso": "AL", "flag": "ğŸ‡¦ğŸ‡±", "dialCode": "+355" },
    { "name": "Algeria", "iso": "DZ", "flag": "ğŸ‡©ğŸ‡¿", "dialCode": "+213" },
    { "name": "American Samoa", "iso": "AS", "flag": "ğŸ‡¦ğŸ‡¸", "dialCode": "+1-684" },
    { "name": "Andorra", "iso": "AD", "flag": "ğŸ‡¦ğŸ‡©", "dialCode": "+376" },
    { "name": "Angola", "iso": "AO", "flag": "ğŸ‡¦ğŸ‡´", "dialCode": "+244" },
    { "name": "Anguilla", "iso": "AI", "flag": "ğŸ‡¦ğŸ‡®", "dialCode": "+1264" },
    { "name": "Antarctica", "iso": "AQ", "flag": "ğŸ‡¦ğŸ‡¶", "dialCode": "+672" },
    { "name": "Antigua and Barbuda", "iso": "AG", "flag": "ğŸ‡¦ğŸ‡¬", "dialCode": "+1-268" },
    { "name": "Argentina", "iso": "AR", "flag": "ğŸ‡¦ğŸ‡·", "dialCode": "+54" },
    { "name": "Armenia", "iso": "AM", "flag": "ğŸ‡¦ğŸ‡²", "dialCode": "+374" },
    { "name": "Aruba", "iso": "AW", "flag": "ğŸ‡¦ğŸ‡¼", "dialCode": "+297" },
    { "name": "Australia", "iso": "AU", "flag": "ğŸ‡¦ğŸ‡º", "dialCode": "+61" },
    { "name": "Austria", "iso": "AT", "flag": "ğŸ‡¦ğŸ‡¹", "dialCode": "+43" },
    { "name": "Azerbaijan", "iso": "AZ", "flag": "ğŸ‡¦ğŸ‡¿", "dialCode": "+994" },
    { "name": "Bahamas", "iso": "BS", "flag": "ğŸ‡§ğŸ‡¸", "dialCode": "+1-242" },
    { "name": "Bahrain", "iso": "BH", "flag": "ğŸ‡§ğŸ‡­", "dialCode": "+973" },
    { "name": "Bangladesh", "iso": "BD", "flag": "ğŸ‡§ğŸ‡©", "dialCode": "+880" },
    { "name": "Barbados", "iso": "BB", "flag": "ğŸ‡§ğŸ‡§", "dialCode": "+1-246" },
    { "name": "Belarus", "iso": "BY", "flag": "ğŸ‡§ğŸ‡¾", "dialCode": "+375" },
    { "name": "Belgium", "iso": "BE", "flag": "ğŸ‡§ğŸ‡ª", "dialCode": "+32" },
    { "name": "Belize", "iso": "BZ", "flag": "ğŸ‡§ğŸ‡¿", "dialCode": "+501" },
    { "name": "Benin", "iso": "BJ", "flag": "ğŸ‡§ğŸ‡¯", "dialCode": "+229" },
    { "name": "Bermuda", "iso": "BM", "flag": "ğŸ‡§ğŸ‡²", "dialCode": "+1-441" },
    { "name": "Bhutan", "iso": "BT", "flag": "ğŸ‡§ğŸ‡¹", "dialCode": "+975" },
    { "name": "Bolivia", "iso": "BO", "flag": "ğŸ‡§ğŸ‡´", "dialCode": "+591" },
    { "name": "Bonaire, Saint Eustatius and Saba ", "iso": "BQ", "flag": "ğŸ‡§ğŸ‡¶", "dialCode": "+599" },
    { "name": "Bosnia and Herzegovina", "iso": "BA", "flag": "ğŸ‡§ğŸ‡¦", "dialCode": "+387" },
    { "name": "Botswana", "iso": "BW", "flag": "ğŸ‡§ğŸ‡¼", "dialCode": "+267" },
    { "name": "Bouvet Island", "iso": "BV", "flag": "ğŸ‡§ğŸ‡»", "dialCode": "+47" },
    { "name": "Brazil", "iso": "BR", "flag": "ğŸ‡§ğŸ‡·", "dialCode": "+55" },
    { "name": "British Indian Ocean Territory", "iso": "IO", "flag": "ğŸ‡®ğŸ‡´", "dialCode": "+246" },
    { "name": "British Virgin Islands", "iso": "VG", "flag": "ğŸ‡»ğŸ‡¬", "dialCode": "+1-284" },
    { "name": "Brunei", "iso": "BN", "flag": "ğŸ‡§ğŸ‡³", "dialCode": "+673" },
    { "name": "Bulgaria", "iso": "BG", "flag": "ğŸ‡§ğŸ‡¬", "dialCode": "+359" },
    { "name": "Burkina Faso", "iso": "BF", "flag": "ğŸ‡§ğŸ‡«", "dialCode": "+226" },
    { "name": "Burundi", "iso": "BI", "flag": "ğŸ‡§ğŸ‡®", "dialCode": "+257" },
    { "name": "Cambodia", "iso": "KH", "flag": "ğŸ‡°ğŸ‡­", "dialCode": "+855" },
    { "name": "Cameroon", "iso": "CM", "flag": "ğŸ‡¨ğŸ‡²", "dialCode": "+237" },
    { "name": "Canada", "iso": "CA", "flag": "ğŸ‡¨ğŸ‡¦", "dialCode": "+1" },
    { "name": "Cape Verde", "iso": "CV", "flag": "ğŸ‡¨ğŸ‡»", "dialCode": "+238" },
    { "name": "Cayman Islands", "iso": "KY", "flag": "ğŸ‡°ğŸ‡¾", "dialCode": "+1-345" },
    { "name": "Central African Republic", "iso": "CF", "flag": "ğŸ‡¨ğŸ‡«", "dialCode": "+236" },
    { "name": "Chad", "iso": "TD", "flag": "ğŸ‡¹ğŸ‡©", "dialCode": "+235" },
    { "name": "Chile", "iso": "CL", "flag": "ğŸ‡¨ğŸ‡±", "dialCode": "+56" },
    { "name": "China", "iso": "CN", "flag": "ğŸ‡¨ğŸ‡³", "dialCode": "+86" },
    { "name": "Christmas Island", "iso": "CX", "flag": "ğŸ‡¨ğŸ‡½", "dialCode": "+61" },
    { "name": "Cocos Islands", "iso": "CC", "flag": "ğŸ‡¨ğŸ‡¨", "dialCode": "+61" },
    { "name": "Colombia", "iso": "CO", "flag": "ğŸ‡¨ğŸ‡´", "dialCode": "+57" },
    { "name": "Comoros", "iso": "KM", "flag": "ğŸ‡°ğŸ‡²", "dialCode": "+269" },
    { "name": "Cook Islands", "iso": "CK", "flag": "ğŸ‡¨ğŸ‡°", "dialCode": "+682" },
    { "name": "Costa Rica", "iso": "CR", "flag": "ğŸ‡¨ğŸ‡·", "dialCode": "+506" },
    { "name": "Croatia", "iso": "HR", "flag": "ğŸ‡­ğŸ‡·", "dialCode": "+385" },
    { "name": "Cuba", "iso": "CU", "flag": "ğŸ‡¨ğŸ‡º", "dialCode": "+53" },
    { "name": "Curacao", "iso": "CW", "flag": "ğŸ‡¨ğŸ‡¼", "dialCode": "+599" },
    { "name": "Cyprus", "iso": "CY", "flag": "ğŸ‡¨ğŸ‡¾", "dialCode": "+357" },
    { "name": "Czech Republic", "iso": "CZ", "flag": "ğŸ‡¨ğŸ‡¿", "dialCode": "+420" },
    { "name": "Democratic Republic of the Congo", "iso": "CD", "flag": "ğŸ‡¨ğŸ‡©", "dialCode": "+243" },
    { "name": "Denmark", "iso": "DK", "flag": "ğŸ‡©ğŸ‡°", "dialCode": "+45" },
    { "name": "Djibouti", "iso": "DJ", "flag": "ğŸ‡©ğŸ‡¯", "dialCode": "+253" },
    { "name": "Dominica", "iso": "DM", "flag": "ğŸ‡©ğŸ‡²", "dialCode": "+1-767" },
    { "name": "Dominican Republic", "iso": "DO", "flag": "ğŸ‡©ğŸ‡´", "dialCode": "+1-809 and 1-829" },
    { "name": "East Timor", "iso": "TL", "flag": "ğŸ‡¹ğŸ‡±", "dialCode": "+670" },
    { "name": "Ecuador", "iso": "EC", "flag": "ğŸ‡ªğŸ‡¨", "dialCode": "+593" },
    { "name": "Egypt", "iso": "EG", "flag": "ğŸ‡ªğŸ‡¬", "dialCode": "+20" },
    { "name": "El Salvador", "iso": "SV", "flag": "ğŸ‡¸ğŸ‡»", "dialCode": "+503" },
    { "name": "Equatorial Guinea", "iso": "GQ", "flag": "ğŸ‡¬ğŸ‡¶", "dialCode": "+240" },
    { "name": "Eritrea", "iso": "ER", "flag": "ğŸ‡ªğŸ‡·", "dialCode": "+291" },
    { "name": "Estonia", "iso": "EE", "flag": "ğŸ‡ªğŸ‡ª", "dialCode": "+372" },
    { "name": "Ethiopia", "iso": "ET", "flag": "ğŸ‡ªğŸ‡¹", "dialCode": "+251" },
    { "name": "Falkland Islands", "iso": "FK", "flag": "ğŸ‡«ğŸ‡°", "dialCode": "+500" },
    { "name": "Faroe Islands", "iso": "FO", "flag": "ğŸ‡«ğŸ‡´", "dialCode": "+298" },
    { "name": "Fiji", "iso": "FJ", "flag": "ğŸ‡«ğŸ‡¯", "dialCode": "+679" },
    { "name": "Finland", "iso": "FI", "flag": "ğŸ‡«ğŸ‡®", "dialCode": "+358" },
    { "name": "France", "iso": "FR", "flag": "ğŸ‡«ğŸ‡·", "dialCode": "+33" },
    { "name": "French Guiana", "iso": "GF", "flag": "ğŸ‡¬ğŸ‡«", "dialCode": "+594" },
    { "name": "French Polynesia", "iso": "PF", "flag": "ğŸ‡µğŸ‡«", "dialCode": "+689" },
    { "name": "French Southern Territories", "iso": "TF", "flag": "ğŸ‡¹ğŸ‡«", "dialCode": "+262" },
    { "name": "Gabon", "iso": "GA", "flag": "ğŸ‡¬ğŸ‡¦", "dialCode": "+241" },
    { "name": "Gambia", "iso": "GM", "flag": "ğŸ‡¬ğŸ‡²", "dialCode": "+220" },
    { "name": "Georgia", "iso": "GE", "flag": "ğŸ‡¬ğŸ‡ª", "dialCode": "+995" },
    { "name": "Germany", "iso": "DE", "flag": "ğŸ‡©ğŸ‡ª", "dialCode": "+49" },
    { "name": "Ghana", "iso": "GH", "flag": "ğŸ‡¬ğŸ‡­", "dialCode": "+233" },
    { "name": "Gibraltar", "iso": "GI", "flag": "ğŸ‡¬ğŸ‡®", "dialCode": "+350" },
    { "name": "Greece", "iso": "GR", "flag": "ğŸ‡¬ğŸ‡·", "dialCode": "+30" },
    { "name": "Greenland", "iso": "GL", "flag": "ğŸ‡¬ğŸ‡±", "dialCode": "+299" },
    { "name": "Grenada", "iso": "GD", "flag": "ğŸ‡¬ğŸ‡©", "dialCode": "+1-473" },
    { "name": "Guadeloupe", "iso": "GP", "flag": "ğŸ‡¬ğŸ‡µ", "dialCode": "+590" },
    { "name": "Guam", "iso": "GU", "flag": "ğŸ‡¬ğŸ‡º", "dialCode": "+1-671" },
    { "name": "Guatemala", "iso": "GT", "flag": "ğŸ‡¬ğŸ‡¹", "dialCode": "+502" },
    { "name": "Guernsey", "iso": "GG", "flag": "ğŸ‡¬ğŸ‡¬", "dialCode": "+44-1481" },
    { "name": "Guinea", "iso": "GN", "flag": "ğŸ‡¬ğŸ‡³", "dialCode": "+224" },
    { "name": "Guinea-Bissau", "iso": "GW", "flag": "ğŸ‡¬ğŸ‡¼", "dialCode": "+245" },
    { "name": "Guyana", "iso": "GY", "flag": "ğŸ‡¬ğŸ‡¾", "dialCode": "+592" },
    { "name": "Haiti", "iso": "HT", "flag": "ğŸ‡­ğŸ‡¹", "dialCode": "+509" },
    { "name": "Heard Island and McDonald Islands", "iso": "HM", "flag": "ğŸ‡­ğŸ‡²", "dialCode": "+ " },
    { "name": "Honduras", "iso": "HN", "flag": "ğŸ‡­ğŸ‡³", "dialCode": "+504" },
    { "name": "Hong Kong", "iso": "HK", "flag": "ğŸ‡­ğŸ‡°", "dialCode": "+852" },
    { "name": "Hungary", "iso": "HU", "flag": "ğŸ‡­ğŸ‡º", "dialCode": "+36" },
    { "name": "Iceland", "iso": "IS", "flag": "ğŸ‡®ğŸ‡¸", "dialCode": "+354" },
    { "name": "India", "iso": "IN", "flag": "ğŸ‡®ğŸ‡³", "dialCode": "+91" },
    { "name": "Indonesia", "iso": "ID", "flag": "ğŸ‡®ğŸ‡©", "dialCode": "+62" },
    { "name": "Iran", "iso": "IR", "flag": "ğŸ‡®ğŸ‡·", "dialCode": "+98" },
    { "name": "Iraq", "iso": "IQ", "flag": "ğŸ‡®ğŸ‡¶", "dialCode": "+964" },
    { "name": "Ireland", "iso": "IE", "flag": "ğŸ‡®ğŸ‡ª", "dialCode": "+353" },
    { "name": "Isle of Man", "iso": "IM", "flag": "ğŸ‡®ğŸ‡²", "dialCode": "+44-1624" },
    { "name": "Israel", "iso": "IL", "flag": "ğŸ‡®ğŸ‡±", "dialCode": "+972" },
    { "name": "Italy", "iso": "IT", "flag": "ğŸ‡®ğŸ‡¹", "dialCode": "+39" },
    { "name": "Ivory Coast", "iso": "CI", "flag": "ğŸ‡¨ğŸ‡®", "dialCode": "+225" },
    { "name": "Jamaica", "iso": "JM", "flag": "ğŸ‡¯ğŸ‡²", "dialCode": "+1-876" },
    { "name": "Japan", "iso": "JP", "flag": "ğŸ‡¯ğŸ‡µ", "dialCode": "+81" },
    { "name": "Jersey", "iso": "JE", "flag": "ğŸ‡¯ğŸ‡ª", "dialCode": "+44-1534" },
    { "name": "Jordan", "iso": "JO", "flag": "ğŸ‡¯ğŸ‡´", "dialCode": "+962" },
    { "name": "Kazakhstan", "iso": "KZ", "flag": "ğŸ‡°ğŸ‡¿", "dialCode": "+7" },
    { "name": "Kenya", "iso": "KE", "flag": "ğŸ‡°ğŸ‡ª", "dialCode": "+254" },
    { "name": "Kiribati", "iso": "KI", "flag": "ğŸ‡°ğŸ‡®", "dialCode": "+686" },
    { "name": "Kosovo", "iso": "XK", "flag": "ğŸ‡½ğŸ‡°", "dialCode": "+383" },
    { "name": "Kuwait", "iso": "KW", "flag": "ğŸ‡°ğŸ‡¼", "dialCode": "+965" },
    { "name": "Kyrgyzstan", "iso": "KG", "flag": "ğŸ‡°ğŸ‡¬", "dialCode": "+996" },
    { "name": "Laos", "iso": "LA", "flag": "ğŸ‡±ğŸ‡¦", "dialCode": "+856" },
    { "name": "Latvia", "iso": "LV", "flag": "ğŸ‡±ğŸ‡»", "dialCode": "+371" },
    { "name": "Lebanon", "iso": "LB", "flag": "ğŸ‡±ğŸ‡§", "dialCode": "+961" },
    { "name": "Lesotho", "iso": "LS", "flag": "ğŸ‡±ğŸ‡¸", "dialCode": "+266" },
    { "name": "Liberia", "iso": "LR", "flag": "ğŸ‡±ğŸ‡·", "dialCode": "+231" },
    { "name": "Libya", "iso": "LY", "flag": "ğŸ‡±ğŸ‡¾", "dialCode": "+218" },
    { "name": "Liechtenstein", "iso": "LI", "flag": "ğŸ‡±ğŸ‡®", "dialCode": "+423" },
    { "name": "Lithuania", "iso": "LT", "flag": "ğŸ‡±ğŸ‡¹", "dialCode": "+370" },
    { "name": "Luxembourg", "iso": "LU", "flag": "ğŸ‡±ğŸ‡º", "dialCode": "+352" },
    { "name": "Macao", "iso": "MO", "flag": "ğŸ‡²ğŸ‡´", "dialCode": "+853" },
    { "name": "Macedonia", "iso": "MK", "flag": "ğŸ‡²ğŸ‡°", "dialCode": "+389" },
    { "name": "Madagascar", "iso": "MG", "flag": "ğŸ‡²ğŸ‡¬", "dialCode": "+261" },
    { "name": "Malawi", "iso": "MW", "flag": "ğŸ‡²ğŸ‡¼", "dialCode": "+265" },
    { "name": "Malaysia", "iso": "MY", "flag": "ğŸ‡²ğŸ‡¾", "dialCode": "+60" },
    { "name": "Maldives", "iso": "MV", "flag": "ğŸ‡²ğŸ‡»", "dialCode": "+960" },
    { "name": "Mali", "iso": "ML", "flag": "ğŸ‡²ğŸ‡±", "dialCode": "+223" },
    { "name": "Malta", "iso": "MT", "flag": "ğŸ‡²ğŸ‡¹", "dialCode": "+356" },
    { "name": "Marshall Islands", "iso": "MH", "flag": "ğŸ‡²ğŸ‡­", "dialCode": "+692" },
    { "name": "Martinique", "iso": "MQ", "flag": "ğŸ‡²ğŸ‡¶", "dialCode": "+596" },
    { "name": "Mauritania", "iso": "MR", "flag": "ğŸ‡²ğŸ‡·", "dialCode": "+222" },
    { "name": "Mauritius", "iso": "MU", "flag": "ğŸ‡²ğŸ‡º", "dialCode": "+230" },
    { "name": "Mayotte", "iso": "YT", "flag": "ğŸ‡¾ğŸ‡¹", "dialCode": "+262" },
    { "name": "Mexico", "iso": "MX", "flag": "ğŸ‡²ğŸ‡½", "dialCode": "+52" },
    { "name": "Micronesia", "iso": "FM", "flag": "ğŸ‡«ğŸ‡²", "dialCode": "+691" },
    { "name": "Moldova", "iso": "MD", "flag": "ğŸ‡²ğŸ‡©", "dialCode": "+373" },
    { "name": "Monaco", "iso": "MC", "flag": "ğŸ‡²ğŸ‡¨", "dialCode": "+377" },
    { "name": "Mongolia", "iso": "MN", "flag": "ğŸ‡²ğŸ‡³", "dialCode": "+976" },
    { "name": "Montenegro", "iso": "ME", "flag": "ğŸ‡²ğŸ‡ª", "dialCode": "+382" },
    { "name": "Montserrat", "iso": "MS", "flag": "ğŸ‡²ğŸ‡¸", "dialCode": "+1-664" },
    { "name": "Morocco", "iso": "MA", "flag": "ğŸ‡²ğŸ‡¦", "dialCode": "+212" },
    { "name": "Mozambique", "iso": "MZ", "flag": "ğŸ‡²ğŸ‡¿", "dialCode": "+258" },
    { "name": "Myanmar", "iso": "MM", "flag": "ğŸ‡²ğŸ‡²", "dialCode": "+95" },
    { "name": "Namibia", "iso": "NA", "flag": "ğŸ‡³ğŸ‡¦", "dialCode": "+264" },
    { "name": "Nauru", "iso": "NR", "flag": "ğŸ‡³ğŸ‡·", "dialCode": "+674" },
    { "name": "Nepal", "iso": "NP", "flag": "ğŸ‡³ğŸ‡µ", "dialCode": "+977" },
    { "name": "Netherlands", "iso": "NL", "flag": "ğŸ‡³ğŸ‡±", "dialCode": "+31" },
    { "name": "New Caledonia", "iso": "NC", "flag": "ğŸ‡³ğŸ‡¨", "dialCode": "+687" },
    { "name": "New Zealand", "iso": "NZ", "flag": "ğŸ‡³ğŸ‡¿", "dialCode": "+64" },
    { "name": "Nicaragua", "iso": "NI", "flag": "ğŸ‡³ğŸ‡®", "dialCode": "+505" },
    { "name": "Niger", "iso": "NE", "flag": "ğŸ‡³ğŸ‡ª", "dialCode": "+227" },
    { "name": "Nigeria", "iso": "NG", "flag": "ğŸ‡³ğŸ‡¬", "dialCode": "+234" },
    { "name": "Niue", "iso": "NU", "flag": "ğŸ‡³ğŸ‡º", "dialCode": "+683" },
    { "name": "Norfolk Island", "iso": "NF", "flag": "ğŸ‡³ğŸ‡«", "dialCode": "+672" },
    { "name": "North Korea", "iso": "KP", "flag": "ğŸ‡°ğŸ‡µ", "dialCode": "+850" },
    { "name": "Northern Mariana Islands", "iso": "MP", "flag": "ğŸ‡²ğŸ‡µ", "dialCode": "+1-670" },
    { "name": "Norway", "iso": "NO", "flag": "ğŸ‡³ğŸ‡´", "dialCode": "+47" },
    { "name": "Oman", "iso": "OM", "flag": "ğŸ‡´ğŸ‡²", "dialCode": "+968" },
    { "name": "Pakistan", "iso": "PK", "flag": "ğŸ‡µğŸ‡°", "dialCode": "+92" },
    { "name": "Palau", "iso": "PW", "flag": "ğŸ‡µğŸ‡¼", "dialCode": "+680" },
    { "name": "Palestinian Territory", "iso": "PS", "flag": "ğŸ‡µğŸ‡¸", "dialCode": "+970" },
    { "name": "Panama", "iso": "PA", "flag": "ğŸ‡µğŸ‡¦", "dialCode": "+507" },
    { "name": "Papua New Guinea", "iso": "PG", "flag": "ğŸ‡µğŸ‡¬", "dialCode": "+675" },
    { "name": "Paraguay", "iso": "PY", "flag": "ğŸ‡µğŸ‡¾", "dialCode": "+595" },
    { "name": "Peru", "iso": "PE", "flag": "ğŸ‡µğŸ‡ª", "dialCode": "+51" },
    { "name": "Philippines", "iso": "PH", "flag": "ğŸ‡µğŸ‡­", "dialCode": "+63" },
    { "name": "Pitcairn", "iso": "PN", "flag": "ğŸ‡µğŸ‡³", "dialCode": "+870" },
    { "name": "Poland", "iso": "PL", "flag": "ğŸ‡µğŸ‡±", "dialCode": "+48" },
    { "name": "Portugal", "iso": "PT", "flag": "ğŸ‡µğŸ‡¹", "dialCode": "+351" },
    { "name": "Puerto Rico", "iso": "PR", "flag": "ğŸ‡µğŸ‡·", "dialCode": "+1-787 and 1-939" },
    { "name": "Qatar", "iso": "QA", "flag": "ğŸ‡¶ğŸ‡¦", "dialCode": "+974" },
    { "name": "Republic of the Congo", "iso": "CG", "flag": "ğŸ‡¨ğŸ‡¬", "dialCode": "+242" },
    { "name": "Reunion", "iso": "RE", "flag": "ğŸ‡·ğŸ‡ª", "dialCode": "+262" },
    { "name": "Romania", "iso": "RO", "flag": "ğŸ‡·ğŸ‡´", "dialCode": "+40" },
    { "name": "Russia", "iso": "RU", "flag": "ğŸ‡·ğŸ‡º", "dialCode": "+7" },
    { "name": "Rwanda", "iso": "RW", "flag": "ğŸ‡·ğŸ‡¼", "dialCode": "+250" },
    { "name": "Saint Barthelemy", "iso": "BL", "flag": "ğŸ‡§ğŸ‡±", "dialCode": "+590" },
    { "name": "Saint Helena", "iso": "SH", "flag": "ğŸ‡¸ğŸ‡­", "dialCode": "+290" },
    { "name": "Saint Kitts and Nevis", "iso": "KN", "flag": "ğŸ‡°ğŸ‡³", "dialCode": "+1-869" },
    { "name": "Saint Lucia", "iso": "LC", "flag": "ğŸ‡±ğŸ‡¨", "dialCode": "+1-758" },
    { "name": "Saint Martin", "iso": "MF", "flag": "ğŸ‡²ğŸ‡«", "dialCode": "+590" },
    { "name": "Saint Pierre and Miquelon", "iso": "PM", "flag": "ğŸ‡µğŸ‡²", "dialCode": "+508" },
    { "name": "Saint Vincent and the Grenadines", "iso": "VC", "flag": "ğŸ‡»ğŸ‡¨", "dialCode": "+1-784" },
    { "name": "Samoa", "iso": "WS", "flag": "ğŸ‡¼ğŸ‡¸", "dialCode": "+685" },
    { "name": "San Marino", "iso": "SM", "flag": "ğŸ‡¸ğŸ‡²", "dialCode": "+378" },
    { "name": "Sao Tome and Principe", "iso": "ST", "flag": "ğŸ‡¸ğŸ‡¹", "dialCode": "+239" },
    { "name": "Saudi Arabia", "iso": "SA", "flag": "ğŸ‡¸ğŸ‡¦", "dialCode": "+966" },
    { "name": "Senegal", "iso": "SN", "flag": "ğŸ‡¸ğŸ‡³", "dialCode": "+221" },
    { "name": "Serbia", "iso": "RS", "flag": "ğŸ‡·ğŸ‡¸", "dialCode": "+381" },
    { "name": "Seychelles", "iso": "SC", "flag": "ğŸ‡¸ğŸ‡¨", "dialCode": "+248" },
    { "name": "Sierra Leone", "iso": "SL", "flag": "ğŸ‡¸ğŸ‡±", "dialCode": "+232" },
    { "name": "Singapore", "iso": "SG", "flag": "ğŸ‡¸ğŸ‡¬", "dialCode": "+65" },
    { "name": "Sint Maarten", "iso": "SX", "flag": "ğŸ‡¸ğŸ‡½", "dialCode": "+599" },
    { "name": "Slovakia", "iso": "SK", "flag": "ğŸ‡¸ğŸ‡°", "dialCode": "+421" },
    { "name": "Slovenia", "iso": "SI", "flag": "ğŸ‡¸ğŸ‡®", "dialCode": "+386" },
    { "name": "Solomon Islands", "iso": "SB", "flag": "ğŸ‡¸ğŸ‡§", "dialCode": "+677" },
    { "name": "Somalia", "iso": "SO", "flag": "ğŸ‡¸ğŸ‡´", "dialCode": "+252" },
    { "name": "South Africa", "iso": "ZA", "flag": "ğŸ‡¿ğŸ‡¦", "dialCode": "+27" },
    { "name": "South Georgia and the South Sandwich Islands", "iso": "GS", "flag": "ğŸ‡¬ğŸ‡¸", "dialCode": "+500" },
    { "name": "South Korea", "iso": "KR", "flag": "ğŸ‡°ğŸ‡·", "dialCode": "+82" },
    { "name": "South Sudan", "iso": "SS", "flag": "ğŸ‡¸ğŸ‡¸", "dialCode": "+211" },
    { "name": "Spain", "iso": "ES", "flag": "ğŸ‡ªğŸ‡¸", "dialCode": "+34" },
    { "name": "Sri Lanka", "iso": "LK", "flag": "ğŸ‡±ğŸ‡°", "dialCode": "+94" },
    { "name": "Sudan", "iso": "SD", "flag": "ğŸ‡¸ğŸ‡©", "dialCode": "+249" },
    { "name": "Suriname", "iso": "SR", "flag": "ğŸ‡¸ğŸ‡·", "dialCode": "+597" },
    { "name": "Svalbard and Jan Mayen", "iso": "SJ", "flag": "ğŸ‡¸ğŸ‡¯", "dialCode": "+47" },
    { "name": "Swaziland", "iso": "SZ", "flag": "ğŸ‡¸ğŸ‡¿", "dialCode": "+268" },
    { "name": "Sweden", "iso": "SE", "flag": "ğŸ‡¸ğŸ‡ª", "dialCode": "+46" },
    { "name": "Switzerland", "iso": "CH", "flag": "ğŸ‡¨ğŸ‡­", "dialCode": "+41" },
    { "name": "Syria", "iso": "SY", "flag": "ğŸ‡¸ğŸ‡¾", "dialCode": "+963" },
    { "name": "Taiwan", "iso": "TW", "flag": "ğŸ‡¹ğŸ‡¼", "dialCode": "+886" },
    { "name": "Tajikistan", "iso": "TJ", "flag": "ğŸ‡¹ğŸ‡¯", "dialCode": "+992" },
    { "name": "Tanzania", "iso": "TZ", "flag": "ğŸ‡¹ğŸ‡¿", "dialCode": "+255" },
    { "name": "Thailand", "iso": "TH", "flag": "ğŸ‡¹ğŸ‡­", "dialCode": "+66" },
    { "name": "Togo", "iso": "TG", "flag": "ğŸ‡¹ğŸ‡¬", "dialCode": "+228" },
    { "name": "Tokelau", "iso": "TK", "flag": "ğŸ‡¹ğŸ‡°", "dialCode": "+690" },
    { "name": "Tonga", "iso": "TO", "flag": "ğŸ‡¹ğŸ‡´", "dialCode": "+676" },
    { "name": "Trinidad and Tobago", "iso": "TT", "flag": "ğŸ‡¹ğŸ‡¹", "dialCode": "+1-868" },
    { "name": "Tunisia", "iso": "TN", "flag": "ğŸ‡¹ğŸ‡³", "dialCode": "+216" },
    { "name": "Turkey", "iso": "TR", "flag": "ğŸ‡¹ğŸ‡·", "dialCode": "+90" },
    { "name": "Turkmenistan", "iso": "TM", "flag": "ğŸ‡¹ğŸ‡²", "dialCode": "+993" },
    { "name": "Turks and Caicos Islands", "iso": "TC", "flag": "ğŸ‡¹ğŸ‡¨", "dialCode": "+1-649" },
    { "name": "Tuvalu", "iso": "TV", "flag": "ğŸ‡¹ğŸ‡»", "dialCode": "+688" },
    { "name": "U.S. Virgin Islands", "iso": "VI", "flag": "ğŸ‡»ğŸ‡®", "dialCode": "+1-340" },
    { "name": "Uganda", "iso": "UG", "flag": "ğŸ‡ºğŸ‡¬", "dialCode": "+256" },
    { "name": "Ukraine", "iso": "UA", "flag": "ğŸ‡ºğŸ‡¦", "dialCode": "+380" },
    { "name": "United Arab Emirates", "iso": "AE", "flag": "ğŸ‡¦ğŸ‡ª", "dialCode": "+971" },
    { "name": "United Kingdom", "iso": "GB", "flag": "ğŸ‡¬ğŸ‡§", "dialCode": "+44" },
    { "name": "United States Minor Outlying Islands", "iso": "UM", "flag": "ğŸ‡ºğŸ‡²", "dialCode": "+1" },
    { "name": "United States", "iso": "US", "flag": "ğŸ‡ºğŸ‡¸", "dialCode": "+1" },
    { "name": "Uruguay", "iso": "UY", "flag": "ğŸ‡ºğŸ‡¾", "dialCode": "+598" },
    { "name": "Uzbekistan", "iso": "UZ", "flag": "ğŸ‡ºğŸ‡¿", "dialCode": "+998" },
    { "name": "Vanuatu", "iso": "VU", "flag": "ğŸ‡»ğŸ‡º", "dialCode": "+678" },
    { "name": "Vatican", "iso": "VA", "flag": "ğŸ‡»ğŸ‡¦", "dialCode": "+379" },
    { "name": "Venezuela", "iso": "VE", "flag": "ğŸ‡»ğŸ‡ª", "dialCode": "+58" },
    { "name": "Vietnam", "iso": "VN", "flag": "ğŸ‡»ğŸ‡³", "dialCode": "+84" },
    { "name": "Wallis and Futuna", "iso": "WF", "flag": "ğŸ‡¼ğŸ‡«", "dialCode": "+681" },
    { "name": "Western Sahara", "iso": "EH", "flag": "ğŸ‡ªğŸ‡­", "dialCode": "+212" },
    { "name": "Yemen", "iso": "YE", "flag": "ğŸ‡¾ğŸ‡ª", "dialCode": "+967" },
    { "name": "Zambia", "iso": "ZM", "flag": "ğŸ‡¿ğŸ‡²", "dialCode": "+260" },
    { "name": "Zimbabwe", "iso": "ZW", "flag": "ğŸ‡¿ğŸ‡¼", "dialCode": "+263" }
  ]